"shapeid","x","y","OBJECTID","LSN","POI_NAME","POI_TYPE","POI_SOURCE","PHONE_NUM","GLOBALID","WEBSITE"
"0","-82.9381265467387","39.818591796909594","5701253","7250 STAR CHECK DR","Rickenbacker Aviation","Transportation - Airport","NULL","614-409-3660","{126B67B3-1A51-48F8-9EEB-8967F1CC77B1}","NULL"
"1","-83.00190248847399","39.963316426634364","5700993","40 N FRONT ST","LeVeque Tower Garage","Transportation - Parking Lot/Garage","NULL","NULL","{AD3C4E36-670F-4C01-8D6D-C4BF77EFD65C}","https://www.lazparking.com/local/columbus--oh/leveque-tower-garage"
"2","-83.13481991998147","40.014756640001934","5701071","3024 CHARTER ST","Ryder Ubtegrated Logistics","Transportation - Other","NULL","NULL","{B7F2EF83-90B3-4E3B-B3C2-E5DAE99ED91A}","NULL"
"3","-83.00509687857488","39.97045213677412","5701692","441 N FRONT ST","Arena Crossing Garage","Transportation - Parking Lot/Garage","NULL","NULL","{D50441E7-A99B-4C29-9A6C-2AE70A7DA76C}","https://columbusparking.spplus.com/345-front-st.html"
"4","-82.90660937982098","40.02124081033229","5701699","3882 AGLER RD","1 Buck Logistics Trucking","Transportation - Other","NULL","NULL","{7FE95CF7-D5EB-4E24-AFB1-FF74B7D3839E}","NULL"
"5","-83.12543251127039","39.97312194545832","5701700","4540 FISHER RD","Windstar Trucking Company","Transportation - Other","NULL","NULL","{711F9FD9-8501-4EDB-BA0C-7C16D92C1F2E}","NULL"
"6","-83.0166480541691","39.992973693868066","5701663","355 W 9TH AVE","9th Ave East Garage","Transportation - Parking Lot/Garage","NULL","NULL","{3A53F214-B683-43AF-8D4F-799C9B23CF40}","https://www.lazparking.com/local/columbus-oh/9th-avenue-east-garage"
"7","-83.0061046121731","40.11700595691966","5701435","7500 HUNTINGTON PARK DR","COTA Park & Ride - Crosswoods","Transportation - Bus","NULL","NULL","{ACAEC72D-DD30-426A-9417-2DAE0D0E9141}","NULL"
"8","-82.97857328548115","39.95073384095245","5701453","733 E LIVINGSTON AVE","Ronald McDonald House & Hospital Staff Parking","Transportation - Parking Lot/Garage","NULL","NULL","{8CF6AF9F-D328-454C-BE3D-7B53AC7AC39C}","NULL"
"9","-82.99027032901712","39.970116014591795","5701464","322 CLEVELAND AVE","CSCC 1-E Parking Lot","Transportation - Parking Lot/Garage","NULL","NULL","{70C8E22C-908E-4B3B-86FE-0AFB785148BA}","http://www.cscc.edu/about/columbus/pdf/map.pdf"
"10","-82.86953406159901","39.93117293366039","5700694","4740 GROVES RD","Realm Logistics","Transportation - Other","NULL","NULL","{C37F1A63-D888-46F8-A0AB-A791304FEE97}","NULL"
"11","-83.13294050565985","39.915703518177025","5700762","5075 KRIEGER CT","Vitran Express","Transportation - Other","NULL","NULL","{E8395868-BA72-4E54-861F-3B474BD054AF}","NULL"
"12","-82.99867227850743","39.965084374562906","5700544","89 E LONG ST","SW Corner of Long & 3rd Lot","Transportation - Parking Lot/Garage","NULL","NULL","{BE5F577C-5D2A-4BE0-B471-1BA9DFCD276B}","https://portal.park-ops.com/index.php?cPath=17"
"13","-83.02348951012806","39.95713326217241","5709623","109 S HARTFORD AVE","Mount Carmel Employee Parking Lot E","Transportation - Parking Lot/Garage","NULL","NULL","{1831BF1B-374D-4799-8062-A1B3CB287220}","NULL"
"14","-83.07172104735137","39.96985364088632","5709547","700 HARRISON DR","Franklin Specialty Transport","Transportation - Other","NULL","614-529-7900","{997D1EE4-A434-40FC-B087-43CE95A2A867}","NULL"
"15","-82.97660755228252","39.953873769295264","5709328","527 S 18TH ST","Outpatient Care Parking Garage","Transportation - Parking Lot/Garage","NULL","NULL","{FE2319DF-03C6-47A1-AE18-1A72A99DB535}","NULL"
"16","-83.14728789037132","39.95056027292223","5709341","55 WESTWOODS BLVD","COTA Park & Ride - Westwoods","Transportation - Bus","NULL","NULL","{B309026F-3718-49C6-925D-AE6B156D0B4B}","http://www.cota.com/park-and-ride.aspx"
"17","-83.0005448035453","39.88588864015602","5709364","3713 1/2 S HIGH ST","COTA Park & Ride - Great Southern","Transportation - Bus","NULL","NULL","{5E3BDE37-A4F6-470E-93CB-FFFC066A0ED9}","NULL"
"18","-82.92255040749241","39.99451208503712","5709374","1120 RARIG AVE","Bridge Brothers Trucking","Transportation - Other","NULL","NULL","{02BDBC10-15C1-4F4B-B632-4E8D066F0113}","NULL"
"19","-82.93912720967108","39.893136920469665","5709477","2020 E WILLIAMS RD","CMH Specialized Transportation","Transportation - Other","NULL","NULL","{323E951F-A072-4366-89DB-ECB03A3963AB}","NULL"
"20","-82.98604758309126","39.96780017384132","5709484","573 E SPRING ST","CSCC 31-S Parking Lot","Transportation - Parking Lot/Garage","NULL","NULL","{CCAB58A1-5B2C-4F6D-A063-465C2DA3119A}","http://www.cscc.edu/about/columbus/pdf/map.pdf"
"21","-83.04463016541239","39.96366121079203","5711794","1601 MCKINLEY AVE","Ward Trucking Corp","Transportation - Other","NULL","NULL","{4074D715-E419-42F5-88C6-673342867C6C}","NULL"
"22","-83.00231905480436","39.95459968629432","5711708","110 W MOUND ST","114 W Mound St Lot","Transportation - Parking Lot/Garage","NULL","NULL","{3BF9EE6D-E03D-4022-A43F-16703A7BAD69}","https://www.parkplaceparking.com/parking-lot-details/21"
"23","-82.97937616573266","39.95413186297082","5711715","727 MOOBERRY ST","Staff Parking Garage","Transportation - Parking Lot/Garage","NULL","NULL","{8BC3789D-19EB-418D-8623-B31F8B711835}","NULL"
"24","-83.12462696123728","40.00132860787657","5711469","2365 WESTBELT DR","CSX Intermodal Terminals","Transportation - Rail","NULL","NULL","{5CA584C0-F98D-4132-BF37-F653B6368ABB}","NULL"
"25","-83.01297282980315","39.99532485705647","5711477","229 W 11TH AVE","11th Ave Garage","Transportation - Parking Lot/Garage","NULL","NULL","{40524B00-623E-48F5-8B29-E1EEED2FB7FB}","https://www.lazparking.com/local/columbus-oh/11th-avenue-garage"
"26","-82.97632005299255","39.95318471131872","5711491","558 S 18TH ST","Applicant Parking","Transportation - Parking Lot/Garage","NULL","NULL","{77AB0823-C282-471D-BA87-B44F70E531F3}","NULL"
"27","-83.12499510010035","40.00096925944265","5711551","2359 WESTBELT DR","CSX Intermodal Terminals","Transportation - Rail","NULL","NULL","{71A74EA8-5530-4299-B0E1-85FB72F15D37}","NULL"
"28","-83.12443980858673","39.99599345952173","5711584","2103 WESTBELT DR","CSX Intermodal Terminals","Transportation - Rail","NULL","NULL","{E5F3FCDE-CC62-4F82-997C-B7378AC82D3B}","NULL"
"29","-82.99641170393349","39.96465133424357","5702061","80 N 4TH ST","4th & Elm Garage","Transportation - Parking Lot/Garage","NULL","NULL","{1F439BD6-1184-4C15-A24D-2CFA8214C1F5}","https://www.lazparking.com/local/columbus-oh/4th--elm-garage"
"30","-82.99583500853484","39.96694390836352","5701957","189 N 5TH ST","200 E Spring St Lot","Transportation - Parking Lot/Garage","NULL","NULL","{E96EDD78-48E8-4ADC-B729-92C9BEB2BED4}","https://www.parkplaceparking.com/parking-lot-details/16"
"31","-82.99904778799501","39.957396016949154","5702005","25 E RICH ST","COTA Transit Terminal","Transportation - Bus","NULL","NULL","{CA3AD5BE-1C5E-4EAA-8595-EE4EB885CBAD}","NULL"
"32","-83.11749121396464","39.9669103779082","5701726","4141 PARKWEST DR","Swift Transportation","Transportation - Other","NULL","NULL","{13134C9B-6D94-46C0-9365-61057BDB1313}","NULL"
"33","-82.92941479640648","39.99466561224889","5701727","1170 N CASSADY AVE","Capital Transportation","Transportation - Other","NULL","NULL","{5CA5A3EC-1A7E-43E0-9A47-D9EC7C03634E}","NULL"
"34","-83.00187991404655","39.96315455721974","5701733","40 N FRONT ST","Hotel LeVeque Garage","Transportation - Parking Lot/Garage","NULL","NULL","{3002613E-2343-4F56-BE13-4F0E64026E18}","https://www.lazparking.com/local/columbus-oh/hotel-leveque-autograph-collection"
"35","-83.02579253229716","40.00012165238394","5701800","1920 COFFEY RD","Sisson Lot 2 (South)","Transportation - Parking Lot/Garage","NULL","NULL","{CCD87861-DC50-4656-8641-54743F83FCA0}","https://www.lazparking.com/local/columbus-oh/sisson-lot-2-south"
"36","-83.14214305309716","39.975252539531695","5701854","5400 FISHER RD","YRC Freight","Transportation - Other","NULL","NULL","{3A0ECE43-E488-4B27-AEEC-A3F6197FB627}","NULL"
"37","-82.91289737578951","39.92151634233996","5701865","2450 SOBECK RD","Central Transport","Transportation - Other","NULL","NULL","{B1934E2A-1E9F-4E0B-944C-F9CA85DE4D4A}","NULL"
"38","-83.00942148997832","39.96722734327769","5701917","300   NEIL AVE","Neil Avenue Garage","Transportation - Parking Lot/Garage","NULL","NULL","{F65976C4-6210-410E-A85F-CC751EDCF6A3}","NULL"
"39","-83.01680344841203","39.929169964055056","5700375","1565 HARMON AVE","Powers Trucking","Transportation - Other","NULL","NULL","{CD704124-F86D-4B0F-A9C0-9120DC6388B6}","NULL"
"40","-83.12554721961034","40.00076165786277","5700190","2351 WESTBELT DR","CSX Intermodal Terminals","Transportation - Rail","NULL","NULL","{EDBFADA9-5893-4563-AFC2-2760232F855E}","NULL"
"41","-82.98900483768303","39.99308465340907","5708212","1400 GROGAN AVE","Northway Transportation","Transportation - Other","NULL","NULL","{2250D3B9-C4A9-4A34-9B4A-DC7681E7D835}","NULL"
"42","-82.9922683730269","39.96017860952947","5708869","141 S 6TH ST","Blue Garage","Transportation - Parking Lot/Garage","NULL","NULL","{727EA2A5-2B3C-4746-B558-C1D64ECF64F9}","NULL"
"43","-82.84010943396953","39.97665091275944","5707816","6035 E BROAD ST","Mt Carmel Hospital Employee Parking","Transportation - Parking Lot/Garage","NULL","NULL","{89EC3CE7-FDEC-4494-AF58-71D62DFEEE6B}","NULL"
"44","-83.0683376556922","39.95461862399319","5708937","23 S RICHARDSON AVE","West Broad Medical Center Parking","Transportation - Parking Lot/Garage","NULL","NULL","{3BF122E6-E1BF-483C-B46F-60F579A71541}","NULL"
"45","-82.99106533767966","39.990608805562765","5708252","1330 FIELDS AVE","First Transit","Transportation - Bus","NULL","NULL","{6439FAF6-BE39-41B1-980E-FEC1F10B209C}","NULL"
"46","-82.9900325387708","39.98041142449817","5708267","805 CLEVELAND AVE","Hilltop Transportation","Transportation - Other","NULL","NULL","{186AF692-A04C-4315-99B8-4C7D9C96BDFB}","NULL"
"47","-83.14230494374951","39.9213654842076","5709144","1400 NORTON RD","Wind Speed Logistics","Transportation - Other","NULL","NULL","{09FD5C8F-270D-4BCE-8C72-B5B9C1B9F527}","NULL"
"48","-82.9953066012793","39.96588924303219","5708292","218 E LONG ST","218-256 E Long St Lot","Transportation - Parking Lot/Garage","NULL","NULL","{D474A8E7-251E-4EFA-AA4A-04BA71BEC895}","https://www.parkplaceparking.com/parking-lot-details/9"
"49","-82.93272283299024","39.89490121723948","5709016","2495 CREEKWAY DR","Coastal Transportation","Transportation - Other","NULL","NULL","{93C77B9B-7D6F-4DFE-BB3B-BDC65A66A315}","NULL"
"50","-82.99553464302171","39.957844868805125","5709205","145 E RICH ST","Hartman Lot","Transportation - Parking Lot/Garage","NULL","NULL","{1055C92A-26A5-486C-9B70-DC181AE0C1BE}","http://www.parkme.com/lot/29269/hartman-lot-columbus-oh"
"51","-83.00770710881103","39.968945435574106","5709215","355 JOHN H MCCONNELL BLVD","McConnell Garage","Transportation - Parking Lot/Garage","NULL","NULL","{0C145C0C-2E61-4ECE-8F46-7C08ECCC8080}","NULL"
"52","-83.01614020935966","40.002964459576006","5707893","271 IVES DR","Northwest Garage","Transportation - Parking Lot/Garage","NULL","NULL","{430B0E13-5999-4FAC-9956-E84475BBEA8E}","https://www.lazparking.com/local/columbus-oh/northwest-garage"
"53","-83.02052066898959","40.004344407901556","5708314","380 WOODY HAYES DR","South Field House Lot","Transportation - Parking Lot/Garage","NULL","NULL","{CD9422B2-54DC-4BF9-9AAB-BB990BAE1472}","https://www.lazparking.com/local/columbus-oh/south-field-house-lot"
"54","-82.99079355255145","39.9714534765792","5708328","412 MCCOY ST","CSCC 21-S Parking Lot","Transportation - Parking Lot/Garage","NULL","NULL","{B630A435-42A2-4B14-A046-AC4C1877FA80}","http://www.cscc.edu/about/columbus/pdf/map.pdf"
"55","-83.13106290292016","40.01011063312741","5709064","2800 INTERNATIONAL ST","Bowman Trailer Leasing","Transportation - Other","NULL","NULL","{3E4369EB-2E1D-47B2-BBF4-92B7CDF29B57}","NULL"
"56","-83.03722028504359","39.912900540529165","5709193","2180 HARDY PARKWAY ST","RCL Express","Transportation - Other","NULL","NULL","{AABABC45-4E96-4A34-AB3E-EFB9CE731795}","NULL"
"57","-82.99656627158961","39.96043746160599","5708379","131 E STATE ST","104 S Lazelle St Lot","Transportation - Parking Lot/Garage","NULL","NULL","{B49E6694-511B-41D0-A1AA-9BD82B31F040}","https://www.parkme.com/lot/28724/104-s-lazelle-st"
"58","-82.99374870275327","39.9648231812683","5709224","77 NORMANDY AVE","77 Normandy Ave Lot","Transportation - Parking Lot/Garage","NULL","NULL","{70C58B90-F60B-4D0D-B510-1CEED9AD9B4A}","http://www.parkme.com/lot/28728/77-normandy-ave"
"59","-82.99827988622998","39.957463444772294","5707980","55 E RICH ST","Columbus Commons Main Garage","Transportation - Parking Lot/Garage","CBLD1618323","NULL","{2B99546C-0376-4A0B-804B-25E83DE5DB53}","NULL"
"60","-82.99700096572103","39.96784488774157","5707987","240 N 4TH ST","260 N 4th St Lot","Transportation - Parking Lot/Garage","NULL","NULL","{8B5DF29A-BC69-4E76-934D-33696BDFDC7E}","https://www.parkplaceparking.com/parking-lot-details/18"
"61","-83.00941437685408","39.99524615416904","5708389","75 W 11TH AVE","Hale (Catfish Biffs) Lot","Transportation - Parking Lot/Garage","NULL","NULL","{2FFA5BF9-B16B-4E42-8360-DC4336B22B11}","https://www.lazparking.com/local/columbus-oh/hale-catfish-biffs-lot"
"62","-83.00898951023512","39.99874549000765","5708390","1780 COLLEGE RD S","Ohio Union North Garage","Transportation - Parking Lot/Garage","NULL","NULL","{F20CF421-8E3F-4778-997B-8F6FBDBFCCC6}","http://osu.campusparc.com/home/garages/academic-south-campus/ohio-union-north"
"63","-82.90927708989098","39.98486872324085","5707557","3540 E 5TH AVE","Rocky Trucking","Transportation - Other","NULL","NULL","{F3CBFE41-D273-4434-A865-EA61DF744560}","NULL"
"64","-82.9955383807258","39.96537216841177","5707562","203 E LONG ST","Lot 031","Transportation - Parking Lot/Garage","NULL","NULL","{565F990A-A113-4D8E-BD3D-F929FE0DAF35}","https://www.parkplaceparking.com/parking-lot-details/23"
"65","-83.00528785212235","39.981909516732706","5707574","24 W 2ND AVE","IBEW Parking Lot","Transportation - Parking Lot/Garage","NULL","NULL","{B9D18F43-E36E-40E2-BFFB-DA0FB61D5F55}","https://towneparkpermit.com/parkers/ParisWeb-LocList.php"
"66","-82.98691863125394","39.966854964620204","5708453","534 E LONG ST","CSCC Student Parking Garage","Transportation - Parking Lot/Garage","NULL","NULL","{537458ED-FC97-4FFF-9E5C-C4FED2EFEC47}","http://www.cscc.edu/about/columbus/pdf/map.pdf"
"67","-83.01955413007008","40.00272808675454","5708492","411 WOODY HAYES DR","West Stadium Lot","Transportation - Parking Lot/Garage","NULL","NULL","{5AD4278F-78FC-4F50-9849-9CCB7D921A30}","https://www.lazparking.com/local/columbus-oh/west-stadium-lot"
"68","-82.87514317191801","39.987830852100984","5708109","4760 E 5TH  AVE","Worldwide Flight Services","Transportation - Other","NULL","NULL","{58B76C9F-94B2-4BF7-86DB-4D82B3B5C5A6}","NULL"
"69","-82.96922353660916","39.95769087284068","5708515","1125 E MAIN ST","COTA Near East Transit Authority","Transportation - Bus","NULL","NULL","{61CBDCA0-34C6-466A-8491-62FAA2044704}","NULL"
"70","-82.9307784799733","39.987137869288944","5707675","830 N CASSADY AVE","Total Xpress","Transportation - Other","NULL","NULL","{BE094D24-E725-4EDE-A967-7AEE47F67190}","NULL"
"71","-82.99376071104012","39.957201736115074","5708135","212 E MAIN ST","Llijmas Parking","Transportation - Parking Lot/Garage","NULL","NULL","{CF1DF642-DA6C-4845-A4E2-B8E6E2939D64}","NULL"
"72","-83.02051573233682","39.95657504551914","5708548","752 W TOWN ST","Mount Carmel Employee Parking Lot H","Transportation - Parking Lot/Garage","NULL","NULL","{85FFD03F-27BE-48EF-9ED4-2B5119806BF0}","NULL"
"73","-82.97788565767318","39.952416514607954","5707706","766 CHILDREN'S DR","Urgent Care Parking","Transportation - Parking Lot/Garage","NULL","NULL","{7D4E14C0-39DF-4268-960C-13CE36C77037}","NULL"
"74","-83.02227657293781","39.99943408502796","5708140","1880 CANNON DR","Midtower (Lincoln/Morrill) Lot","Transportation - Parking Lot/Garage","NULL","NULL","{699F7B2F-E1C1-416E-9EB3-C1CA2F6FD30D}","https://www.lazparking.com/local/columbus-oh/midtower-lincolnmorrill-lot"
"75","-83.00367576467454","39.96748388086826","5708141","285 N FRONT ST","Front Street Parking Garage","Transportation - Parking Lot/Garage","NULL","NULL","{50A3270D-7A9E-4BE4-BD5C-91AC69AA1066}","NULL"
"76","-83.00396552560993","39.96837245851706","5708142","263 N FRONT ST","Nationwide Garage","Transportation - Parking Lot/Garage","NULL","NULL","{EF3C89EB-0BF2-4B4B-AF6C-F13DC7C0DA07}","NULL"
"77","-82.90543149820839","39.99855840023523","5708152","3795 INTERNATIONAL GATEWAY","Green Long Term Shuttle Lot","Transportation - Parking Lot/Garage","NULL","NULL","{D089DFA8-7EB0-42E5-A4ED-7A9BFD063315}","NULL"
"78","-82.98499386587562","39.96915790877584","5708185","240 JEFFERSON AVE","CSCC 8-S Parking Lot","Transportation - Parking Lot/Garage","NULL","NULL","{3A00D45C-CAB1-45B4-99F9-24CED397FC7E}","http://www.cscc.edu/about/columbus/pdf/map.pdf"
"79","-82.92338229000227","39.993386321452704","5704551","3075 14TH AVE","Supreme Limousine Services","Transportation - Other","NULL","NULL","{13CF7064-9868-4F40-8847-E80CD7BF1EA2}","NULL"
"80","-83.13504329440887","40.01556029476488","5705284","4630 JOURNAL ST","J & R Schugel Trucking","Transportation - Other","NULL","NULL","{89E75455-5F30-4F26-A9E9-5FCADC0FB791}","NULL"
"81","-83.13712689385673","39.91697111903776","5704138","1929 LONE EAGLE ST","West Side Transport","Transportation - Other","NULL","NULL","{39DF45D7-7ACB-4114-833E-3C3554C66306}","NULL"
"82","-83.04321765144707","39.91304037084641","5704141","1795 FEDDERN AVE","Dana Transport","Transportation - Other","NULL","NULL","{BC7E1FF1-F9F9-4097-A1F5-02B478CB6B9A}","NULL"
"83","-83.00083041348522","40.06106181890692","5704173","4730 INDIANOLA AVE","COTA Park & Ride - Indianola & Morse","Transportation - Bus","NULL","NULL","{47332E53-5949-405D-A44D-1F546A584453}","NULL"
"84","-83.00020617677491","39.95167854579026","5705396","500 S FRONT ST","Brewery Garage","Transportation - Parking Lot/Garage","NULL","NULL","{E2D1DF8C-8649-4DEA-8929-35823B602B29}","https://www.lazparking.com/local/columbus--oh/brewery-garage"
"85","-82.99987563229509","39.96473610588458","5705560","45 E LONG ST","Buckeye Garage","Transportation - Parking Lot/Garage","NULL","NULL","{96B57308-4B8D-42A9-9336-991AFB687C29}","https://www.lazparking.com/local/columbus--oh/buckeye-garage"
"86","-83.0106906916969","39.99504844825335","5704237","1626 HIGHLAND ST","Lot U","Transportation - Parking Lot/Garage","NULL","NULL","{DC4F2188-EB19-494F-B7E1-147084A19214}","https://www.lazparking.com/local/columbus-oh/lot-u"
"87","-82.99678363845491","39.966390859157016","5704293","178 N 4TH ST","4th & Spring Lot","Transportation - Parking Lot/Garage","NULL","NULL","{00B744CA-95E5-4226-92D3-4DBCF8E8DECA}","https://www.parkplaceparking.com/parking-lot-details/3"
"88","-82.99507247813935","39.960570052171676","5704723","185 E STATE ST","Lot 010","Transportation - Parking Lot/Garage","NULL","NULL","{AB1E5363-C975-477F-A142-BB07A1EA2BA6}","https://www.parkplaceparking.com/parking-lot-details/13"
"89","-83.01085915188371","40.0077605309445","5704735","43 W NORTHWOOD AVE","Northwood & High Lot","Transportation - Parking Lot/Garage","NULL","NULL","{8BEE7C45-ACE0-4AA9-A967-0F7ED7DF7F9D}","https://www.lazparking.com/local/columbus-oh/northwood--high"
"90","-82.9859742404288","39.96853618631487","5703860","582 E SPRING ST","CSCC 9-E,H,V Parking Lot","Transportation - Parking Lot/Garage","NULL","NULL","{CF332DBA-B0C7-44AB-838A-A0FFF66EB8EF}","http://www.cscc.edu/about/columbus/pdf/map.pdf"
"91","-82.98594531187561","39.968013387454434","5705056","575 E SPRING ST","CSCC 30-S Parking","Transportation - Parking Lot/Garage","NULL","NULL","{EDDDC71B-9BF4-4B15-8F91-D0C780BE9DF0}","http://www.cscc.edu/about/columbus/pdf/map.pdf"
"92","-83.13802345696627","39.91482493986534","5704353","1800 LONE EAGLE ST","Heartland Express","Transportation - Other","NULL","NULL","{B0C0C1C6-AB2A-4C3F-B9DA-29B2A68C0120}","NULL"
"93","-82.98119955775665","39.95161802486656","5704822","635 E LIVINGSTON AVE","Applicant Parking / Staff Parking","Transportation - Parking Lot/Garage","NULL","NULL","{9EFC5447-C451-4A35-8604-B56F2420AF1A}","NULL"
"94","-82.96611710532301","39.99957121984378","5704397","1579 JOYCE AVE","Dublin Taxi","Transportation - Other","NULL","NULL","{305778C4-35E7-4F89-A3D5-E2180DB1AC89}","NULL"
"95","-82.97598429910802","39.91575620129597","5704849","782 INTERNET DR","Patterson Trucking","Transportation - Other","NULL","NULL","{C28BEC2F-4D72-4812-ADBA-93B58E434D3C}","NULL"
"96","-83.03921140971346","39.99864885371472","5705126","1170 KINNEAR RD","Kinnear Lot","Transportation - Parking Lot/Garage","NULL","NULL","{7A2ADC32-3D0F-4323-8939-FD3BC4278797}","https://www.lazparking.com/local/columbus-oh/kinnear-lot"
"97","-83.01748593615457","39.997629959423016","5703973","1801 NEIL AVE","Student Health Lot","Transportation - Parking Lot/Garage","NULL","NULL","{BF38E878-3F67-44A1-B071-401A47AB062A}","https://www.lazparking.com/local/columbus-oh/student-health-lot"
"98","-83.0917618021494","40.02589816895067","5703989","3479 RIVERSIDE DR","COTA Park & Ride - Griggs Dam","Transportation - Bus","NULL","NULL","{0B5FF3B3-8F63-4F5F-80D2-15BE8A4C4693}","http://www.cota.com/park-and-ride.aspx"
"99","-83.0030299416057","39.97916412667793","5704494","30 E HUBBARD AVE","The Hubbard Garage","Transportation - Parking Lot/Garage","NULL","NULL","{B5CB5D7A-4ED5-42F8-9D78-6D9DA75F8A90}","https://columbusparking.spplus.com/30-e-hubbard-ave.html"
"100","-83.01736873747366","39.99650847735445","5704523","340 W 12TH AVE","12th Ave Garage","Transportation - Parking Lot/Garage","NULL","NULL","{7CC7362F-5AE6-4E61-8F55-4B276A0128B2}","https://www.lazparking.com/local/columbus-oh/12th-avenue-garage"
"101","-82.99182182146583","39.96953577980932","5704525","366 MT VERNON AVE","CSCC 16-V Parking Lot","Transportation - Parking Lot/Garage","NULL","NULL","{C57D0C4D-16EC-43AD-A256-014F2701FFCD}","http://www.cscc.edu/about/columbus/pdf/map.pdf"
"102","-82.95822828349954","39.98219248491009","5704528","735 MULBERRY ST","Turbo Transport Group","Transportation - Other","NULL","NULL","{40B88609-43EE-4CF2-B70D-1EA84314E1E2}","NULL"
"103","-83.00995784236373","40.00277928938441","5704537","1990 COLLEGE RD N","Arps Garage","Transportation - Parking Lot/Garage","NULL","NULL","{D27C9570-7B8D-4EE5-92A2-51FD528A617A}","https://www.lazparking.com/local/columbus-oh/arps-garage"
"104","-83.03293623690074","40.060014720936074","5710996","4990 OLENTANGY RIVER RD","COTA Park & Ride - Olentangy & Bethel","Transportation - Bus","NULL","NULL","{F6AE8F4F-F5C0-4097-8492-28C58C9FADEB}","http://www.cota.com/park-and-ride.aspx"
"105","-82.91321364815003","40.051001680339816","5710369","4035 CHAGRIN DR","Electric Car Charging Station","Transportation - Other","NULL","NULL","{945EEE63-A066-4D2E-A2AD-F20E63D4AE3A}","NULL"
"106","-82.92974615978719","39.98377063847182","5710386","2751 E 4TH AVE","Midwest Express","Transportation - Other","NULL","NULL","{C155C1D1-42CE-4BA6-8518-AD0523389C25}","NULL"
"107","-82.99752295527149","39.965506521689974","5711132","134 E LONG ST","136 E Long St Lot","Transportation - Parking Lot/Garage","NULL","NULL","{FD522157-773C-4A4C-B10D-961127DC2145}","https://portal.park-ops.com/index.php?cPath=17"
"108","-83.07427399300676","40.075125008773504","5711161","2160 WEST CASE RD","The Ohio State University Airport","Transportation - Airport","NULL","NULL","{2BE27D47-B3FA-4AE4-90A2-1DB639310082}","NULL"
"109","-83.00387664423972","39.96693985249316","5711355","285 N FRONT ST","Front Street Garage","Transportation - Parking Lot/Garage","NULL","NULL","{C7CF2CF3-5E0F-439F-BA7C-A0622D6C1116}","https://columbusparking.spplus.com/285-n-front-st.html"
"110","-82.92985381697346","39.909321522018246","5711356","2885 ALUM CREEK DR","Old Dominion Freight Line","Transportation - Other","CBLD1618750","614-491-3903","{9D249B39-5CC1-46E4-BF8E-80E9B8BB68B1}","NULL"
"111","-82.99793690340489","39.958425392238716","5710046","191 S 3RD ST","Columbus Commons Underground Garage","Transportation - Parking Lot/Garage","NULL","NULL","{AF405E6F-24C2-44D6-BA2E-9ABD73A7892F}","https://www.lazparking.com/local/columbus-oh/columbus-commons-underground-garage"
"112","-83.07012188408397","39.97073781386833","5710464","2440 HARRISON RD","L V Trucking","Transportation - Other","NULL","NULL","{A434ADBB-FB87-4BC7-88FB-EAABEBD19AE2}","NULL"
"113","-82.99611205093746","39.96027467074487","5710501","151 E STATE ST","E State St Lot","Transportation - Parking Lot/Garage","NULL","NULL","{77190D6D-F277-432D-A53F-B1E6D09AD8E3}","https://portal.park-ops.com/index.php?cPath=17"
"114","-83.15387535988677","39.98246742667646","5711330","5584 RENNER RD","COTA Park & Ride - Renner Rd","Transportation - Bus","NULL","NULL","{B24CE444-A414-4294-99EF-9151D1D15DBC}","http://www.cota.com/park-and-ride.aspx"
"115","-83.13856982588445","39.97819842288384","5710530","1250 WALCUTT RD","Fyda Freightliner","Transportation - Other","NULL","NULL","{22E4B4C2-D83C-4F1B-889F-E8076A4A697A}","NULL"
"116","-83.00643357240855","39.97182363287148","5711242","144 VINE ST","Lot 035AB","Transportation - Parking Lot/Garage","NULL","NULL","{15B1C20D-5CD1-4BC8-9341-154367EA1D2B}","https://www.parkplaceparking.com/parking-lot-details/27"
"117","-82.99211388052603","39.9707239090757","5711259","353 N GRANT AVE","CSCC 23-S, H Parking Lot","Transportation - Parking Lot/Garage","NULL","NULL","{576363C8-0DC4-447B-80A0-628DDF1F91CD}","http://www.cscc.edu/about/columbus/pdf/map.pdf"
"118","-82.9348926800802","39.91896089111629","5711381","2430 PERFORMANCE WAY","Refrigerated Food Express","Transportation - Other","NULL","NULL","{3E6E2EB4-28C6-4F4E-94C1-83AE2988A09B}","NULL"
"119","-83.02374269959283","39.959015339380656","5709732","23 S HARTFORD AVE","Mount Carmel Employee Parking Lot A","Transportation - Parking Lot/Garage","NULL","NULL","{040DCC34-3D39-4399-9D34-FA91843060BD}","NULL"
"120","-82.99977087368688","39.926364037979724","5710837","1700 HAUL RD","Evans Logistics","Transportation - Other","NULL","NULL","{FA08A03B-DEAD-4ED9-A0E9-D5C30F2E7931}","NULL"
"121","-82.99022588050822","39.96836751819348","5709762","234 CLEVELAND AVE","CSCC 11-S,H,V Parking Lot","Transportation - Parking Lot/Garage","NULL","NULL","{0A8833CB-1372-450C-88B3-5B2B84AE2DB2}","http://www.cscc.edu/about/columbus/pdf/map.pdf"
"122","-83.14029497896976","39.92146706978493","5710647","5400 CROSSWIND DR","Crete Carrier Corporation","Transportation - Other","NULL","NULL","{82CD279C-9B36-469D-93D6-676D1CDFC260}","NULL"
"123","-82.99884122938268","39.93544644280022","5710863","104 W MOLER ST","IDA Trucking","Transportation - Other","NULL","NULL","{BDE4EAAB-A2BC-4AC4-B4F3-A888AEE00E5E}","NULL"
"124","-82.9604454925203","39.98559879354432","5710865","1640 E 5TH AVE","Urban Express","Transportation - Other","NULL","NULL","{D474D0AF-AFBA-45F6-9BED-2CD4F242B8E1}","NULL"
"125","-83.03204545543466","39.917755760173364","5710868","1000 FRANK RD","Columbus Freight","Transportation - Other","NULL","NULL","{839A0B98-BD1A-4B90-96F3-0856D8E8E303}","NULL"
"126","-83.00479018020759","39.97236864886872","5710649","499 PARK ST","Vine St Lot","Transportation - Parking Lot/Garage","NULL","NULL","{B02AAA49-EE0E-4FB2-A85E-1CBB518A04C1}","https://columbusparking.spplus.com/441-park-st.html"
"127","-82.92972553893914","39.983990406486996","5710886","2753 E 4TH AVE","Cosmopolitan Enterprises","Transportation - Other","NULL","NULL","{1DE1B2E1-8683-4496-900F-BD0A9D57E1BC}","NULL"
"128","-83.00125107732686","39.95713831429938","5710675","232 S FRONT ST","RiverSouth Garage","Transportation - Parking Lot/Garage","NULL","NULL","{0EB276D9-D848-4244-8349-C25DAEB5777F}","https://www.lazparking.com/local/columbus-oh/riversouth-garage"
"129","-82.99015788598629","39.97115470509098","5710300","364 CLEVELAND AVE","CSCC 2-E Parking Lot","Transportation - Parking Lot/Garage","NULL","NULL","{B86D6F61-7884-4D51-86D9-0B8D923908F7}","http://www.cscc.edu/about/columbus/pdf/map.pdf"
"130","-83.07526203128285","39.972927536900734","5709892","2845 FISHER RD","Cardinal Transportation","Transportation - Other","NULL","NULL","{7D835A63-D3F8-48FA-B789-AA2B53444FDC}","NULL"
"131","-82.9956440818893","39.958684436383784","5710731","111 E TOWN ST","Greyhound Bus Station","Transportation - Bus","NULL","NULL","{C92C0101-A01F-44B8-B281-65D4AA6EA0D4}","NULL"
"132","-83.02005018143073","39.95611086973348","5710740","751 W TOWN ST","Mount Carmel Employee Parking Garage","Transportation - Parking Lot/Garage","NULL","NULL","{6FE3259E-E149-4DCA-929B-6DD1D959DB10}","NULL"
"133","-82.96430713047941","40.002197263398514","5710755","1720 JOYCE AVE","ABF Freight","Transportation - Other","NULL","NULL","{FF647027-FBC1-4277-A822-1AE21E74F0A9}","NULL"
"134","-83.02077984028809","39.9948754038297","5707180","1640 CANNON DR","South Cannon Garage","Transportation - Parking Lot/Garage","NULL","NULL","{BE952CB3-9814-4D0F-B896-169AABE4B1D5}","https://www.lazparking.com/local/columbus-oh/south-cannon-garage"
"135","-83.12421604866348","39.99574716828943","5706467","2091 WESTBELT DR","CSX Intermodal Terminals","Transportation - Rail","NULL","NULL","{4D3566F7-1C3D-415C-A18E-8E08D5C64E3E}","NULL"
"136","-82.9306966281406","39.98352492016314","5706470","640 N CASSADY AVE","Newark Parcel Service Co","Transportation - Other","NULL","NULL","{7D94DD2D-69B4-40BE-959B-09F48C594D78}","NULL"
"137","-82.99987219499101","39.9497943680176","5705920","600 S FRONT ST","Grange - North Garage","Transportation - Parking Lot/Garage","NULL","NULL","{69E1A5A2-C45B-4039-A067-0CF8BB395327}","https://towneparkpermit.com/parkers/ParisWeb-LocList.php"
"138","-83.00915267712985","39.970647301230265","5707266","221 VINE ST Unit 334","Flats on Vine Garage","Transportation - Parking Lot/Garage","NULL","NULL","{475C4330-C9BB-42E6-A221-43EC81C28D06}","https://columbusparking.spplus.com/221-vine-street.html"
"139","-82.9646443963434","39.88172377099557","5706525","4141 LOCKBOURNE INDUSTRIAL PKWY","Spartan Logistics","Transportation - Other","NULL","NULL","{17244CE1-4AB1-4542-939E-82D5279F4A0E}","NULL"
"140","-82.98472268382969","39.911315305728735","5706535","2600 PARSONS AVE","CSX Intermodal Terminals","Transportation - Rail","NULL","NULL","{699A94D0-19BD-4A36-B6A9-6AAED2B5BD5B}","NULL"
"141","-82.99949533132279","39.96526632443837","5707485","60 E LONG ST","42 E Long St Garage","Transportation - Parking Lot/Garage","NULL","NULL","{BBBC94F7-E8AA-453C-BDFF-E8635A98BAF4}","https://portal.park-ops.com/index.php?cPath=17"
"142","-83.12364172570578","40.00229504601703","5707491","2377 WESTBELT DR","CSX Intermodal Terminals","Transportation - Rail","NULL","NULL","{645F9558-DB9E-4BA1-A181-894185BCC061}","NULL"
"143","-82.94743022264032","39.92017903259862","5707330","1875 FREBIS AVE","NS Thoroughbred Bulk Transfer","Transportation - Rail","NULL","NULL","{70D93731-AF7E-4B75-96E3-BD163A15A65A}","NULL"
"144","-82.84195124882349","39.92757822870475","5707332","2510 PARK CRESCENT","First Student Bus Service","Transportation - Bus","NULL","NULL","{702B8B29-E93E-4468-BF02-A6B4AC6461EB}","NULL"
"145","-83.08857932246974","39.953994493355765","5706030","3311 W BROAD ST","COTA Park & Ride - Southampton","Transportation - Bus","NULL","NULL","{C0B0DF29-5EF3-43AC-AA3E-79BC8D6E7026}","http://www.cota.com/park-and-ride.aspx"
"146","-83.06921588639682","40.12279736099531","5706042","1985 SWANSFORD DR","COTA Park & Ride - St Andrew","Transportation - Bus","NULL","NULL","{6B8F97C2-4AC7-4347-95DA-206C643234BE}","http://www.cota.com/park-and-ride.aspx"
"147","-83.00425786968971","39.97129208045597","5707442","444 N FRONT ST","Arena Crossing Lot","Transportation - Parking Lot/Garage","NULL","NULL","{A3D5F4F0-24E9-4C1D-A349-1DBE5D0D4711}","https://columbusparking.spplus.com/arena-crossing-lot.html"
"148","-82.95727542567849","39.82518140105201","5707455","6868 CANAL RD","Vance Transportation Service","Transportation - Other","NULL","NULL","{D402AADD-9858-41D1-A429-E31970D045A4}","NULL"
"149","-83.11761561517406","39.971307666593034","5706062","4275 WESTWARD AVE","Knight Transportation","Transportation - Other","NULL","NULL","{4C584B1A-8FE6-4E44-AF91-E52DC79F6C9A}","NULL"
"150","-83.1305508960577","40.07216985131848","5706068","5067 TUTTLE CROSSING BLVD","Electric Car Charging Station","Transportation - Other","NULL","NULL","{E35217CA-7616-4165-9BF3-411C92C057CA}","NULL"
"151","-82.89098804848089","39.98799036631478","5705640","4290 E 5TH AVE","Columbus International Air Center","Transportation - Airport","NULL","NULL","{B805784C-7EF5-450E-913A-C12400FC2626}","NULL"
"152","-83.01878080747647","39.93563721715922","5706682","859 STIMMEL RD","Safeway Freight Line","Transportation - Other","NULL","NULL","{1E99AD85-921E-4D75-B8EC-3FBF81C33EA9}","NULL"
"153","-82.9978922147248","39.95380768348246","5706120","34 E FULTON ST","34 E Fulton St Garage","Transportation - Parking Lot/Garage","NULL","NULL","{B7BA70D1-5C53-4873-A158-32ADECF216D7}","NULL"
"154","-82.95256363276035","39.8910488381754","5706698","1658 E WILLIAMS RD","Terminal Warehouse","Transportation - Other","NULL","NULL","{4280A885-258F-4359-B64C-E8EE46E2BB16}","NULL"
"155","-82.9803516738743","39.925231791677476","5706142","1879 FEDERAL PKWY","Freedom Transport","Transportation - Other","NULL","NULL","{B42B0F33-0F52-43CB-A508-1A2A708C5AE7}","NULL"
"156","-83.14045838558246","39.90785515989747","5706150","2000 NORTON RD","Bolton Field","Transportation - Airport","NULL","NULL","{A6E5D95A-DAF4-4E11-B447-85DEAA21E803}","NULL"
"157","-82.99628740722218","39.965347041608354","5706995","165 E LONG ST","4th & Long Lot","Transportation - Parking Lot/Garage","NULL","NULL","{531A1889-54B9-4EA4-8809-47E475D8441B}","NULL"
"158","-83.04845245486399","39.96384106332774","5707033","1733 MCKINLEY AVE","Rush Transportation & Logistics","Transportation - Other","NULL","NULL","{71D655E1-416D-48D3-9060-2B9AFACF5987}","NULL"
"159","-82.90638173250863","39.99852798159788","5707047","3779 INTERNATIONAL GATEWAY","Red Lot Columbus Airport","Transportation - Parking Lot/Garage","NULL","NULL","{A05B88D5-DAC0-4DCB-84D0-A7242F1C9662}","NULL"
"160","-82.9818442149449","39.953002650846855","5706775","619 CHILDREN'S DR","Hospital Parking Garage (underground)","Transportation - Parking Lot/Garage","NULL","NULL","{D25AFD0A-67D0-4D8E-AE78-13689E11EE9C}","NULL"
"161","-83.018354239608","39.99320579787072","5707060","423 W 9TH AVE","Safe Auto Garage","Transportation - Parking Lot/Garage","NULL","NULL","{EF412168-53A4-4452-9A6A-F0AF429C0491}","https://www.lazparking.com/local/columbus-oh/safe-auto-garage"
"162","-83.00002253208221","39.95639558236754","5705781","275 S HIGH ST","Schiff Lot","Transportation - Parking Lot/Garage","NULL","NULL","{055939B9-8CEB-4B63-9D29-68391FAAA16E}","https://columbusparking.spplus.com/Columbus-Downtown-Parking.html"
"163","-83.00444218189871","39.966209947559236","5705798","202 N MARCONI BLVD","Hickory Garage","Transportation - Parking Lot/Garage","NULL","NULL","{E2D996AC-42D8-412A-BF58-36440D7B9D79}","https://columbusparking.spplus.com/101-w-hickory-st.html"
"164","-83.1392022407309","40.01551577003738","5706368","4800 JOURNAL ST","USF Holland","Transportation - Other","NULL","NULL","{E96A3F35-D330-43B0-BF89-151D763B00F0}","NULL"
"165","-82.92482166489606","39.997056875032165","5706801","3030 LAMB AVE","Nth Degree Transportation","Transportation - Bus","NULL","NULL","{BFBDE27A-2B07-4136-9457-AF9D6087DC31}","NULL"
"166","-83.00127730578255","39.94862874333315","5706806","121 W SYCAMORE ST","Grange - 37CD Sycamore Lot","Transportation - Parking Lot/Garage","NULL","NULL","{48CCF6AE-DC1B-42F5-97EC-876F6DAB96C6}","https://towneparkpermit.com/parkers/ParisWeb-LocList.php"
"167","-82.98820953225429","39.967782964196644","5706824","165 N WASHINGTON AVE","CSCC 12-S Parking Lot","Transportation - Parking Lot/Garage","NULL","NULL","{09889FEF-40B1-472F-A304-6ACE8EAE8B67}","http://www.cscc.edu/about/columbus/pdf/map.pdf"
"168","-83.03766180099441","39.964006297360655","5705817","1330 MCKINLEY AVE","Barons Bus","Transportation - Other","NULL","614-351-5353","{85E02AC0-0685-45CE-9F0D-64BD12FCB416}","NULL"
"169","-82.87855797186168","39.93242088084252","5706394","2060 S HAMILTON RD","Miller Truck Lines","Transportation - Other","NULL","NULL","{9F6543C6-4C98-4950-A480-4C2EEADC570D}","NULL"
"170","-82.98612717709467","39.96693785606637","5707131","564 E LONG ST","CSCC 32-S Parking Lot","Transportation - Parking Lot/Garage","NULL","NULL","{10710FD7-C9E5-4CB0-829D-029D4C7A54BA}","http://www.cscc.edu/about/columbus/pdf/map.pdf"
"171","-83.14471298512687","39.96303872392457","5706867","500 MANOR PARK DR","Advantage Tank Line","Transportation - Other","NULL","NULL","{43526ECC-66E2-4E48-B4BD-6B9ADC74FA1B}","NULL"
"172","-82.99686695458863","39.96706582201524","5707139","194 N 4TH ST","204 N 4th St Lot","Transportation - Parking Lot/Garage","NULL","NULL","{EF0E0A48-EC17-4E7F-9B4A-5E63285B55E1}","https://www.parkplaceparking.com/parking-lot-details/7"
"173","-82.93111406748709","39.98352901495746","5707150","642 N CASSADY AVE","Priority Logistics","Transportation - Other","NULL","NULL","{5C21585D-06B6-4490-83E5-FDF310ED1B46}","NULL"
"174","-83.12512398732332","40.00073468242188","5703406","2349 WESTBELT DR","CSX Intermodal Terminals","Transportation - Rail","NULL","NULL","{E6858133-B597-476D-BC38-5CE73115CCDA}","NULL"
"175","-82.998558858054","39.962702031688316","5702348","72 E BROAD ST","Key Bank Building Valet Lot","Transportation - Parking Lot/Garage","NULL","NULL","{41764000-F8A6-4A19-84DB-7987D6DA9E98}","https://portal.park-ops.com/index.php?cPath=17"
"176","-82.92173081477137","39.9980795727355","5702367","3152 E 17TH AVE","Lakefront Lines","Transportation - Bus","NULL","NULL","{52A0BF11-8DFD-4922-AF4E-C4FD9E1F4BA1}","NULL"
"177","-83.02335939513121","39.958802923629605","5702763","34 S HARTFORD AVE","Mount Carmel Employee Parking Lot C","Transportation - Parking Lot/Garage","NULL","NULL","{5657B613-CAC7-4AED-B6CC-C3A3738A085C}","NULL"
"178","-83.01993568900805","40.06285648788436","5702392","4939 N HIGH ST","COTA Park & Ride - Delawanda","Transportation - Bus","NULL","NULL","{6B47EBB9-CC8B-4F10-9999-2A51AA1E1D54}","http://www.cota.com/park-and-ride.aspx"
"179","-83.0692526158215","39.968334724430726","5703522","2535 HARRISON RD","Jart Air Express","Transportation - Other","NULL","NULL","{5F186159-EB22-4A79-99AA-611AA939BD42}","NULL"
"180","-83.13461496975361","39.995780246686635","5702425","2194 INTERNATIONAL ST","International Trucks","Transportation - Other","NULL","NULL","{434CA097-3988-425A-B2A3-E15DABE55E5F}","NULL"
"181","-83.12429047727076","40.007170031251476","5702461","2625 WESTBELT DR","XPO Logistics Trucking Company","Transportation - Other","CBLD1711358","614-876-7100","{8F7EDAE0-6418-47CA-ABC1-A4639FA28373}","NULL"
"182","-83.13162606561562","40.01315199758442","5702464","2950 INTERNATIONAL ST","Mason and Dixon Lines","Transportation - Other","NULL","NULL","{A8D08CCB-1F06-4F48-BD0F-CD5A9FF893EB}","NULL"
"183","-82.99819404201799","39.95610413345409","5702473","41 E MAIN ST","Westin Guest Parking","Transportation - Parking Lot/Garage","NULL","NULL","{05CD7363-33BA-4F7C-BD88-1887D3201247}","NULL"
"184","-83.13554694438673","39.99686567542043","5703608","2181 INTERNATIONAL ST","Lear Corp","Transportation - Other","NULL","NULL","{B518AB96-F1F2-4DA1-BF4F-F7A34BEBF7D3}","NULL"
"185","-82.99007590091512","39.96025611306043","5703639","370 E TOWN ST","Lot 018","Transportation - Parking Lot/Garage","NULL","NULL","{32F9F5B6-A4DF-47EC-9B7F-737463A3D1ED}","https://www.parkplaceparking.com/parking-lot-details/19"
"186","-82.99540099143293","39.96711868777102","5702535","222 E SPRING ST","Lot 43","Transportation - Parking Lot/Garage","NULL","NULL","{15825137-C45F-489A-919C-1C027A737FDC}","http://www.parkme.com/lot/120813/lot-43-columbus-oh"
"187","-83.02367060789236","39.95796973946296","5702583","67 S HARTFORD AVE","Mount Carmel Employee Parking Lot D","Transportation - Parking Lot/Garage","NULL","NULL","{FFDAF4D5-9D22-4FDC-AED8-7BBD9B88AD4C}","NULL"
"188","-83.1341003161957","40.00769499046083","5702587","2690 CHARTER ST","Ball Corp","Transportation - Other","NULL","614-850-9211","{671C28EA-25BC-40AD-A355-EEFE79CB381F}","NULL"
"189","-82.9805539372878","39.95088222111169","5703221","665 JACKSON ST","Visitor Parking","Transportation - Parking Lot/Garage","NULL","NULL","{92AA64B0-F228-4A57-AE3A-7994F1D3CC10}","NULL"
"190","-82.98172928157021","39.953626544373364","5703234","582 CHILDREN'S DR","Emergency Parking","Transportation - Parking Lot/Garage","NULL","NULL","{67A82BB6-501A-4E36-91C2-E608482A3089}","NULL"
"191","-83.1353840990431","39.917035480142104","5702165","1717 KRIEGER ST","Saia LTL Freight","Transportation - Other","NULL","NULL","{E4E9305A-04BB-4ADE-93BE-192D118637AE}","NULL"
"192","-83.12427190610852","39.996044617645836","5702596","2107 WESTBELT DR","CSX Intermodal Terminals","Transportation - Rail","NULL","NULL","{9E671170-EA92-42FE-A902-1B148925ED4C}","NULL"
"193","-82.91538372127906","39.99214663561418","5702602","977 STELZER RD","Black & White Taxi","Transportation - Other","NULL","NULL","{70740C94-4522-4544-B577-D5D8D05B1697}","NULL"
"194","-83.14107768359425","39.98817727631272","5703028","4989 VULCAN AVE","Albania Trucking","Transportation - Other","NULL","NULL","{56EA78BE-653F-4F38-B6CF-D457D25BF63A}","NULL"
"195","-83.0001914689955","39.96797133664232","5703254","44 E CHESTNUT ST","Chesnut St Garage","Transportation - Parking Lot/Garage","NULL","NULL","{0C51CEFE-4E1C-4DB0-8C4A-A15E150CB97A}","https://columbusparking.spplus.com/Columbus-Downtown-Parking.html"
"196","-82.99443329533167","39.95697379826109","5703077","186 E MAIN ST","E Main St & Zettler St Lot","Transportation - Parking Lot/Garage","NULL","NULL","{3B11C54D-6CC9-453A-B522-6AB6F2000447}","https://portal.park-ops.com/index.php?cPath=17"
"197","-83.00408377753408","39.9753978317958","5703304","33 W RUSSELL ST","Joseph Garage","Transportation - Parking Lot/Garage","NULL","NULL","{25B7B9BE-BC36-4C46-9BB9-F34106F61E6F}","https://www.lazparking.com/local/columbus-oh/joseph-garage"
"198","-82.9045707303704","39.99846254456247","5703348","3801 INTERNATIONAL GATEWAY","Blue Long Term Shuttle Lot","Transportation - Parking Lot/Garage","NULL","NULL","{6734956E-E7E4-4D37-97BB-F5EDE5EE0786}","NULL"
"199","-82.96203779316468","39.981480969385025","5702301","1527 LEONARD AVE","DBA Trucking","Transportation - Other","NULL","NULL","{E54F0868-0FAD-45A3-864C-3C372AFFA7CE}","NULL"
"200","-82.91328942385911","40.00126241849254","5702739","1399 STELZER RD","The Parking Spot - Columbus Airport","Transportation - Parking Lot/Garage","NULL","NULL","{EC4ADD20-D667-4E08-BCD5-EF46BED33B0F}","NULL"
"201","-83.03651980165625","40.00216916381487","5698640","NULL","Carmack Lot 1","Transportation - Parking Lot/Garage","NULL","NULL","{B31D3EA5-5212-45FD-8CBA-AE6C34FC92EC}","https://www.lazparking.com/local/columbus-oh/carmack-lot-1"
"202","-83.04112907227558","40.002611746064474","5698641","NULL","Carmack Lot 5","Transportation - Parking Lot/Garage","NULL","NULL","{C2F3692C-673B-4725-AB27-F796C1DD3FD4}","https://www.lazparking.com/local/columbus-oh/carmack-5-lot"
"203","-83.00892950555011","39.99838449686511","5699094","1759 N HIGH ST","Ohio Union South Garage","Transportation - Parking Lot/Garage","NULL","NULL","{A690E13B-371C-4571-8F33-37EA120A573C}","http://osu.campusparc.com/home/garages/academic-south-campus/ohio-union-south"
"204","-83.03898925989263","40.001939884069536","5699095","NULL","Carmack Lot 3","Transportation - Parking Lot/Garage","NULL","NULL","{98C0E562-055A-4E15-BEF3-554EEE418AFB}","https://www.lazparking.com/local/columbus-oh/carmack-lot-3"
"205","-83.01614041516859","40.0054789694653","5699096","2105 NEIL AVENUE","Lane Ave Garage","Transportation - Parking Lot/Garage","NULL","NULL","{7CF32E22-0B9C-4E20-9FDB-899F9EB55435}","https://www.lazparking.com/local/columbus-oh/lane-avenue-garage"
"206","-83.02652772482926","40.00518195925888","5699097","2120 FYFFE RD","Agricultural Admin Lot","Transportation - Parking Lot/Garage","NULL","NULL","{B26E77AA-14FF-419C-BF91-4CB257309E66}","https://www.lazparking.com/local/columbus-oh/agricultural-admin-lot"
"207","-83.02307548736106","40.01240909459621","5699098","535 IRVING SCHOTTENSTEIN DR","Woody Hayes Lot","Transportation - Parking Lot/Garage","NULL","NULL","{CE95AA29-BF47-41C3-A5B3-0A44228CD9F2}","https://www.lazparking.com/local/columbus-oh/woody-hayes-lot"
"208","-82.99749640604752","39.95618164871026","5699099","75 E MAIN ST","East Main St Lot","Transportation - Parking Lot/Garage","NULL","NULL","{E9AF97AE-4B34-4A10-B98E-89F1A409AC7C}","https://columbusparking.spplus.com/Columbus-Downtown-Parking.html"
"209","-82.98155271149359","39.99357091899394","5699125","1394 CLEVELAND AVE","COTA Linden Transit Center","Transportation - Bus","NULL","NULL","{66FE4511-8E4A-4B18-B905-CC4E42B2B967}","http://www.cota.com/park-and-ride.aspx"
"210","-83.13382580864032","40.00578034126912","5698721","2600 CHARTER ST","Fleetmaster Express","Transportation - Other","NULL","NULL","{1D0717C9-C975-4D4D-8963-FFD76B259BF6}","NULL"
"211","-83.01202505949705","39.99801786566894","5698735","155 OVAL DR S","South Oval Lot","Transportation - Parking Lot/Garage","NULL","NULL","{F8F5FF82-6D4C-4A34-A82A-E21FCE5981C9}","https://www.lazparking.com/local/columbus-oh/south-oval-lot"
"212","-83.02074539347143","39.995537573818","5698736","NULL","North Cannon Garage","Transportation - Parking Lot/Garage","NULL","NULL","{BCEF0136-CC78-4752-AB33-AB11F705AA5B}","https://www.lazparking.com/local/columbus-oh/north-cannon-garage"
"213","-83.02163428416715","40.009904295422196","5698737","2400 OLENTANGY RIVER RD","Fawcett Center Lot","Transportation - Parking Lot/Garage","NULL","NULL","{47103470-99C4-43A3-86C5-12DC6A135F8B}","https://www.lazparking.com/local/columbus-oh/fawcett-center"
"214","-83.00305337425901","39.98292468060143","5698738","68 E 2ND AVE","Junior Achievement Lot","Transportation - Parking Lot/Garage","NULL","NULL","{E0D7874A-F010-4C86-9850-48EDC4037EB9}","https://columbusparking.spplus.com/junior-achievement-lot.html"
"215","-82.93483473807262","39.8170636092241","5700017","2295 JOHN CIRCLE DR","Rickenbacker International Airport","Transportation - Airport","NULL","NULL","{50F07471-32F2-41B4-8EEC-F5EFE195DAC4}","NULL"
"216","-82.99434410140408","39.96843989537328","5698739","262 NEILSTON ST","Gravel Lot","Transportation - Parking Lot/Garage","NULL","NULL","{C95FFCA1-69A3-437B-97E9-7A0D9F1DF3DB}","http://www.parkme.com/lot/82338/gravel-lot-columbus-oh"
"217","-82.82593121101088","39.87188843596611","5698783","5336 GENDER RD","COTA Park & Ride - Gender Rd","Transportation - Bus","NULL","NULL","{E96AA7F3-7EF7-4ACF-9840-2F4A1D8F8C8D}","http://www.cota.com/park-and-ride.aspx"
"218","-83.01794663936514","40.007178694299746","5699206","322 W LANE AVE","West Lane Garage","Transportation - Parking Lot/Garage","NULL","NULL","{9E12FF98-243B-4E63-8491-9708AA7B7257}","https://www.lazparking.com/local/columbus-oh/west-lane-garage"
"219","-83.00238964742347","39.948814597504025","5699207","284 W SYCAMORE ST","Grange - 37E Kroger Lot","Transportation - Parking Lot/Garage","NULL","NULL","{D597771E-E949-4E02-8D7D-862971E87B7F}","https://towneparkpermit.com/parkers/ParisWeb-LocList.php"
"220","-83.00529934139367","39.96486386207708","5699501","1 RIVERSIDE PLZ","Sodexo AEP Garage","Transportation - Parking Lot/Garage","CBLD1710615","NULL","{D7448850-E0BF-4094-B020-950BE86CA9CF}","NULL"
"221","-83.02914310677262","40.0037773635908","5698402","2029 FYFFE RD","Animal Science Lot","Transportation - Parking Lot/Garage","NULL","NULL","{D7377331-28CC-434F-AD01-238FB685BCFC}","https://www.lazparking.com/local/columbus-oh/animal-science-lot"
"222","-83.02756442496937","40.01906775620313","5698403","NULL","Ackerman Lot","Transportation - Parking Lot/Garage","NULL","NULL","{60DEB7A7-224A-409A-9B8B-6310DE9A7C94}","https://www.lazparking.com/local/columbus-oh/ackerman-lot"
"223","-83.06591230224014","40.10548883556039","5699265","6899 SMOKY ROW RD","COTA Park & Ride - St Peters","Transportation - Bus","NULL","NULL","{20394455-A23B-4D50-A0C2-E45035AEBFA4}","http://www.cota.com/park-and-ride.aspx"
"224","-82.90551676432649","39.94677706224353","5698436","3380 E LIVINGSTON AVE","COTA Park & Ride - Livingston & Barnett","Transportation - Bus","NULL","NULL","{93BCFB79-5B2C-4BA9-8CE9-9F67C05648A8}","http://www.cota.com/park-and-ride.aspx"
"225","-83.0205115008468","40.006094239957356","5698850","NULL","North Field House Lot","Transportation - Parking Lot/Garage","NULL","NULL","{EC74D671-D90D-42BD-9878-911E2D3AB4F8}","https://www.lazparking.com/local/columbus-oh/north-field-house-lot"
"226","-83.03293828000824","40.002612597522756","5698851","901 WOODY HAYES DR","Blankenship Lot","Transportation - Parking Lot/Garage","NULL","NULL","{D1EAA88C-F935-4448-80D0-39A1E62DD6B9}","https://www.lazparking.com/local/columbus-oh/blankenship-lot"
"227","-83.02422810130288","40.008493184501994","5698852","NULL","Scarlet Lot","Transportation - Parking Lot/Garage","NULL","NULL","{ED125A2B-9E1D-4060-9E83-7105EE112DEF}","https://www.lazparking.com/local/columbus-oh/scarlet-lot"
"228","-83.00614494311876","39.97001101076175","5698853","200 W NATIONWIDE BLVD","Arena Garage","Transportation - Parking Lot/Garage","NULL","NULL","{0729FEC8-1DC0-458E-A9E8-714127263E04}","https://columbusparking.spplus.com/365-broadbelt.html"
"229","-82.999198394387","39.96676395483459","5698854","NULL","NW Corner of Spring & 3rd Lot","Transportation - Parking Lot/Garage","NULL","NULL","{3936493A-E869-423D-B45D-4FF6E8C4C1A6}","https://portal.park-ops.com/index.php?cPath=17"
"230","-82.99067958721946","39.96051931491137","5699288","131 S GRANT AVE","Green Garage","Transportation - Parking Lot/Garage","NULL","NULL","{878E3449-2911-45D5-AB2E-C8912E215FC7}","NULL"
"231","-83.13842223685319","39.99164794379952","5698471","2001 WALCUTT RD","Tri Model Services Inc","Transportation - Other","NULL","NULL","{EBFE4D97-8FA4-4FDE-BEE8-4D5387C58DED}","NULL"
"232","-83.01866021296671","40.00599502355521","5698508","229 WOODY HAYES DR","Ice Rink Lot","Transportation - Parking Lot/Garage","NULL","NULL","{DD9C3DC4-89EC-4F34-BD45-7262A8A23CAE}","https://www.lazparking.com/local/columbus-oh/ice-rink-lothttps://www.lazparking.com/local/columbus-oh/ice-rink-lot"
"233","-83.02707821119233","40.003993799101536","5698509","2027 COFFEY RD","Plumb Hall Lot","Transportation - Parking Lot/Garage","NULL","NULL","{C21AE923-C2CE-420D-B47D-623AC8AD37B1}","https://www.lazparking.com/local/columbus-oh/plumb-hall-lot"
"234","-83.03662856043765","40.00343355112443","5698510","1060 CARMACK RD","Righmire Lot","Transportation - Parking Lot/Garage","NULL","NULL","{83B48667-0E00-4752-B872-D418A46346F0}","https://www.lazparking.com/local/columbus-oh/rightmire-lot"
"235","-83.00167908616206","39.965984322344156","5698511","185 N HIGH ST","Haveli Bistro","Transportation - Parking Lot/Garage","NULL","NULL","{E8981E5C-0DF8-446F-9068-38F5FB3B646B}","https://portal.park-ops.com/index.php?cPath=17"
"236","-82.9984310976528","39.96602066001636","5698512","162 N 3RD ST","Firestone Lot","Transportation - Parking Lot/Garage","NULL","NULL","{676AE4D7-2AB0-424D-B8CE-D26129C49D47}","http://www.parkme.com/lot/118664/firestone-lot-columbus-oh"
"237","-82.99499491005228","39.968593043733435","5698513","236 E NAGHTEN ST","Lot 42","Transportation - Parking Lot/Garage","NULL","NULL","{835E3444-57E3-437C-988A-B4E31E6D5A2A}","http://www.parkme.com/lot/82343/lot-42-columbus-oh"
"238","-82.99866525205762","39.96214423297733","5698514","77 E BROAD ST","Statehouse Garage","Transportation - Parking Lot/Garage","NULL","NULL","{28276D89-9CAB-4DBC-8B68-B33F4923B67F}","https://www.parkme.com/lot/118660/statehouse-columbus-oh"
"239","-83.02743489721806","40.001406384220196","5699401","601 VERNON L THARP ST","Veterinary Clinic Lot","Transportation - Parking Lot/Garage","NULL","NULL","{D254DFBB-1FDF-45C8-B0F8-E93B9C59B9AD}","https://www.lazparking.com/local/columbus-oh/veterinary-clinic-lot"
"240","-83.00177144507545","39.96126150054929","5698982","41 S HIGH ST","Huntington Center Garage","Transportation - Parking Lot/Garage","NULL","NULL","{BA023BEB-8F3F-44CC-8A9F-EB844D9971E4}","https://www.lazparking.com/local/columbus-oh/huntington-center-garage"
"241","-83.02813373734203","40.01569808214552","5698983","NULL","Buckeye Village Lot","Transportation - Parking Lot/Garage","NULL","NULL","{60AFEA35-73F7-41A4-953C-E985F6244512}","https://www.lazparking.com/local/columbus-oh/buckeye-village-lot"
"242","-82.99176875993447","39.96577051326169","5698984","115 N GRANT AVE","North Grant St Lot","Transportation - Parking Lot/Garage","NULL","NULL","{DACD252B-FDBE-4806-956A-FF0B9D7575B6}","https://columbusparking.spplus.com/Columbus-Downtown-Parking.html"
"243","-82.98995357000372","40.00054875185623","5698985","717 E 17TH AVE","Ohio Expo Center Lot","Transportation - Parking Lot/Garage","NULL","NULL","{6C0DEDD8-1EA3-4FB0-BDB8-2A42D332465F}","https://columbusparking.spplus.com/717-e-17th-avenue.html"
"244","-83.0022153121188","39.961587353488575","5698986","18 S FRONT ST","Huntington Plaza Garage","Transportation - Parking Lot/Garage","NULL","NULL","{A8D4DB36-FA14-4685-9225-F8C61E5F6557}","https://columbusparking.spplus.com/37-w-broad-st.html"
"245","-83.00827536209579","39.9720447778882","5712929","180 VINE ST UNIT PPS3","Lot 035C","Transportation - Parking Lot/Garage","NULL","NULL","{8729977C-E1B2-4062-A962-9A3436D03F7A}","https://www.parkplaceparking.com/parking-lot-details/29"
"246","-82.88321270867382","39.99796870122977","5712159","4600 INTERNATIONAL GATEWAY","Port Columbus International Airport","Transportation - Airport","NULL","NULL","{9918E26B-7E36-4136-B896-555ECDFFF504}","NULL"
"247","-82.90935091907232","40.060831764419795","5712626","4260 STELZER RD","COTA Easton Transit Center","Transportation - Bus","NULL","614-433-7885","{4280F79F-160D-40D1-AB1A-60CD08DDEA9D}","http://www.cota.com/park-and-ride.aspx"
"248","-83.13898774857952","39.92004892124572","5712642","5435 CROSSWIND DR","J.B. Hunt Transport","Transportation - Other","NULL","NULL","{A881FCE1-EC23-419D-B90F-9909F62C5DE7}","NULL"
"249","-82.99882093143631","39.965415910865815","5712668","86 E LONG ST","Long & 3rd Lot","Transportation - Parking Lot/Garage","NULL","NULL","{40820A2C-BBCC-44FC-9CE5-C598364F0393}","https://portal.park-ops.com/index.php?cPath=17"
"250","-82.99839972355927","39.96558105785376","5712673","142 N 3RD ST","SE Corner of Lafayette & 3rd Lot","Transportation - Parking Lot/Garage","NULL","NULL","{34606722-63C2-4205-BE79-F584B70C7326}","https://portal.park-ops.com/index.php?cPath=17"
"251","-82.98699434109898","39.962722837387005","5712702","460 OAK ST","Motorists Garage","Transportation - Parking Lot/Garage","NULL","NULL","{63CA2A3A-12D4-4F0D-ABF6-02DA2E7C2535}","NULL"
"252","-83.00490005027687","39.99435975223565","5712304","75 E 11TH AVE","Gateway Garage","Transportation - Parking Lot/Garage","NULL","NULL","{6CBCF60A-5B6B-4446-A33F-F1037208F635}","https://www.lazparking.com/local/columbus-oh/gateway-garage"
"253","-83.01710039914487","40.00289356942982","5711887","2050 TUTTLE PARK PL","SE Stadium Lot","Transportation - Parking Lot/Garage","NULL","NULL","{C0594736-AF27-4E98-957F-26EAF27F84BC}","https://www.lazparking.com/local/columbus-oh/se-stadium-lot"
"254","-82.99625278816113","39.961703554339636","5711898","33 S 4TH ST","4th & Capital","Transportation - Parking Lot/Garage","NULL","NULL","{FC2BC678-F592-4FEF-8550-877B2A4DDA85}","https://www.lazparking.com/local/venues/Columbus-Ohio-USA"
"255","-82.93722585970468","39.88952731834058","5711902","2062 E WILLIAMS RD","Horizon Freight Systems","Transportation - Other","NULL","NULL","{6928B9A2-CAE2-4C85-8306-BCBA3A9BDAAB}","NULL"
"256","-83.0024033247494","39.96597437271181","5712759","33 W SPRING ST","COTA Spring Street Terminal","Transportation - Bus","NULL","NULL","{ED5DE1E7-DEC3-4F3A-9D9D-B336B9DE40AF}","NULL"
"257","-83.07362232053023","39.96693261130847","5711925","2747 HARRISON RD","DAC Transport","Transportation - Other","NULL","NULL","{AB8DA7F4-8199-4EF3-A8A1-710275252FD8}","NULL"
"258","-82.99745270802863","39.960616316044884","5712796","74 S 3RD ST","3rd & State Lot","Transportation - Parking Lot/Garage","NULL","NULL","{CEE1E770-8F3D-4719-AB85-B2F7D9FB304E}","https://www.lazparking.com/local/venues/Columbus-Ohio-USA"
"259","-83.11514314975386","39.96809098538682","5712805","3950 PARKWEST DR UNIT B","Rush Truck Center","Transportation - Other","NULL","NULL","{DC323318-5125-4738-A315-FC650E8E1BF7}","NULL"
"260","-82.86101917269033","40.07987899251615","5713012","4792 E DUBLIN-GRANVILLE RD","Parking Garage","Transportation - Parking Lot/Garage","CBLD1625363","NULL","{F6BC1F4B-6039-497B-936E-EC13E269ED3F}","NULL"
"261","-82.9949452674717","39.95680277541145","5713019","166 E MAIN ST","S 4th St & E Main St Lot","Transportation - Parking Lot/Garage","NULL","NULL","{EC65AF89-7F03-4D0E-BC03-C2F03D1DF12A}","https://portal.park-ops.com/index.php?cPath=17"
"262","-83.01047115524557","39.961612023172336","5712814","362 W BROAD ST","Veterans Memorial Lot","Transportation - Parking Lot/Garage","NULL","NULL","{949C5C73-5FFD-44A7-A174-F1720D47126C}","https://www.lazparking.com/local/columbus-oh/veterans-memorial-lot"
"263","-82.99910131456193","39.96619999322717","5713024","79 E SPRING ST","SW Corner of Spring & 3rd Lot","Transportation - Parking Lot/Garage","NULL","NULL","{83F1450E-D8F7-4AB4-907E-C51F976719EA}","https://portal.park-ops.com/index.php?cPath=17"
"264","-83.14802435303635","39.97620784811099","5713026","5374 KADE JOSEPH DR","Garage","Transportation - Parking Lot/Garage","CBLD1626939","NULL","{72AF3FA1-E42A-4F19-B61B-0F7B1445DE2A}","NULL"
"265","-82.88548765854738","39.99930955950043","5713028","4600 INTERNATIONAL GATEWAY","John Glenn Intl Airport-Cmh","Transportation - Airport","NULL","6142394000","{54360EF4-11C6-45DC-9B03-798A07C54BE9}","NULL"
"266","-82.99620537171303","39.968750539629305","5712848","201 NAGHTEN ST","Lot 40","Transportation - Parking Lot/Garage","NULL","NULL","{73D43E8E-E3AD-4EC9-9E62-5DED182CE24D}","http://www.abm.com/parking-locator/"
"267","-83.00317958576166","39.96503878577698","5712859","141 N FRONT ST","City of Columbus Parking Garage","Transportation - Parking Lot/Garage","CBLD1511214","NULL","{F2040611-EC4B-4D0D-963B-FFF92889F7C6}","NULL"
"268","-83.01407146585007","39.961377524552674","5713061","30 N MAY AVE","Parking Garage","Transportation - Parking Lot/Garage","CBLD1706832","NULL","{6D956B35-30D1-4997-88A4-010B4C114C80}","NULL"
"269","-83.00584060813767","39.96723303754725","5712449","245 MARCONI BLVD","Marconi Garage","Transportation - Parking Lot/Garage","NULL","NULL","{1EC360B7-9A9B-4F5C-979D-5DDBAC486199}","https://columbusparking.spplus.com/245-marconi-blvd.html"
"270","-83.07650788568823","39.96724583294392","5712867","2804 HARRISON RD","Phantom Transport","Transportation - Other","NULL","NULL","{D56FF497-7D73-45CA-A9A1-C83CCA633B46}","NULL"
"271","-82.99655861298645","39.95749245465722","5712884","246 S 3RD ST","Hartman Lot (ABM)","Transportation - Parking Lot/Garage","NULL","NULL","{4E753C56-B16C-46E6-BD8A-F3670E4A074B}","NULL"
"272","-82.99742856229982","39.96694900264112","5712885","201 N 4TH ST","Lot 014","Transportation - Parking Lot/Garage","NULL","NULL","{91008088-6677-45FD-86CF-F67438B6BFD3}","https://www.parkplaceparking.com/parking-lot-details/15"
"273","-82.98927920933744","39.95841468976739","5713089","387 E RICH ST","Open Parking Garage","Transportation - Parking Lot/Garage","CBLD1712266","NULL","{39B5846B-BC57-4144-8BAD-742256B7F672}","NULL"
"274","-82.99505947216059","39.96164779999506","5712888","50 S YOUNG ST","Capital Plaza Garage","Transportation - Parking Lot/Garage","NULL","NULL","{A32431A3-49B1-476B-9A03-1120E5EC9589}","https://www.lazparking.com/local/columbus-oh/capital-plaza-garage"
